CCSDS_OMM_VERS = 2.0
CREATION_DATE  = 
ORIGINATOR     = 

OBJECT_NAME    = XRISM
OBJECT_ID      = 2023-137A
CENTER_NAME    = EARTH
REF_FRAME      = TEME
TIME_SYSTEM    = UTC
MEAN_ELEMENT_THEORY = SGP/SGP4

EPOCH          = 2026-04-05T07:36:15.887520
MEAN_MOTION    = 15.11832006
ECCENTRICITY   = .00078239
INCLINATION    = 31.0012
RA_OF_ASC_NODE = 111.3941
ARG_OF_PERICENTER = 306.0861
MEAN_ANOMALY   = 53.9053

EPHEMERIS_TYPE = 0
CLASSIFICATION_TYPE = U
NORAD_CAT_ID   = 57800
ELEMENT_SET_NO = 999
REV_AT_EPOCH   = 14182
BSTAR          = .37480424E-3
MEAN_MOTION_DOT = .6668E-4
MEAN_MOTION_DDOT = 0

CCSDS_OMM_VERS = 2.0
CREATION_DATE  = 
ORIGINATOR     = 

OBJECT_NAME    = ACS3
OBJECT_ID      = 2024-077B
CENTER_NAME    = EARTH
REF_FRAME      = TEME
TIME_SYSTEM    = UTC
MEAN_ELEMENT_THEORY = SGP/SGP4

EPOCH          = 2026-04-04T18:25:45.311520
MEAN_MOTION    = 13.90931246
ECCENTRICITY   = .00733591
INCLINATION    = 97.1949
RA_OF_ASC_NODE = 30.0195
ARG_OF_PERICENTER = 18.0260
MEAN_ANOMALY   = 342.3481

EPHEMERIS_TYPE = 0
CLASSIFICATION_TYPE = U
NORAD_CAT_ID   = 59588
ELEMENT_SET_NO = 999
REV_AT_EPOCH   = 9782
BSTAR          = .31621755E-1
MEAN_MOTION_DOT = .40672E-3
MEAN_MOTION_DDOT = 0

CCSDS_OMM_VERS = 2.0
CREATION_DATE  = 
ORIGINATOR     = 

OBJECT_NAME    = HTV-X1
OBJECT_ID      = 2025-241A
CENTER_NAME    = EARTH
REF_FRAME      = TEME
TIME_SYSTEM    = UTC
MEAN_ELEMENT_THEORY = SGP/SGP4

EPOCH          = 2026-04-05T04:35:35.039328
MEAN_MOTION    = 15.32544764
ECCENTRICITY   = .00073689
INCLINATION    = 51.6362
RA_OF_ASC_NODE = 305.3144
ARG_OF_PERICENTER = 275.0923
MEAN_ANOMALY   = 84.9217

EPHEMERIS_TYPE = 0
CLASSIFICATION_TYPE = U
NORAD_CAT_ID   = 66174
ELEMENT_SET_NO = 999
REV_AT_EPOCH   = 2500
BSTAR          = .2335001E-3
MEAN_MOTION_DOT = .7088E-4
MEAN_MOTION_DDOT = 0

CCSDS_OMM_VERS = 2.0
CREATION_DATE  = 
ORIGINATOR     = 

OBJECT_NAME    = SZ-21 MODULE
OBJECT_ID      = 2025-246C
CENTER_NAME    = EARTH
REF_FRAME      = TEME
TIME_SYSTEM    = UTC
MEAN_ELEMENT_THEORY = SGP/SGP4

EPOCH          = 2026-04-05T05:22:30.662400
MEAN_MOTION    = 15.70779178
ECCENTRICITY   = .00034436
INCLINATION    = 41.4750
RA_OF_ASC_NODE = 39.7632
ARG_OF_PERICENTER = 230.9448
MEAN_ANOMALY   = 129.1088

EPHEMERIS_TYPE = 0
CLASSIFICATION_TYPE = U
NORAD_CAT_ID   = 66515
ELEMENT_SET_NO = 999
REV_AT_EPOCH   = 2224
BSTAR          = .40161545E-3
MEAN_MOTION_DOT = .51413E-3
MEAN_MOTION_DDOT = 0

